Name,Address,City,State,Pin,Mobile No.,Email
Saanvi Saxena,"H.No. 598, Goyal Zila, Sikar 763515",Anantapur,Telangana,723298,5346391524,dhawanrenee@yahoo.com
Rohan Ahuja,"45/49, Yogi Path, Malegaon-392361",Uluberia,Kerala,848303,09470691824,yashvidass@kaul.org
Armaan Uppal,"H.No. 70, Sheth Road, Mau 811588",Gurgaon,Madhya Pradesh,093889,05516039841,himmatgoel@gmail.com
Ritvik Sem,"40/04, Savant Circle, Unnao 512028",Bidhannagar,Haryana,703609,08089300917,nwason@hotmail.com
Suhana Sawhney,"45/66, Rajagopal Nagar, Orai-449730",Ongole,Nagaland,246237,01615109453,raokanav@mahal-amble.com
Yashvi Ahuja,"H.No. 39, Sathe Ganj, Motihari-167290",Bally,Madhya Pradesh,136748,+918342780569,nbarad@hayer.org
Aarav Ghose,"56/52, Jaggi Path, Asansol-068159",Navi Mumbai,Assam,174751,8510067258,samaira81@kuruvilla.com
Shanaya Walla,"H.No. 010, Goswami, Dindigul 816297",Uluberia,Uttarakhand,621074,01431030364,tara51@hotmail.com
Lakshit Dhawan,"50/051, Contractor Zila, Mehsana-919831",Phusro,West Bengal,620269,01079340921,shayak33@yahoo.com
Tushar Gala,"H.No. 20, Kanda Ganj, Dindigul 248066",Ichalkaranji,Madhya Pradesh,226702,06979599288,rania14@gulati.com
Onkar Trivedi,"50, Grewal Ganj, Avadi 490782",New Delhi,Madhya Pradesh,886492,4134566737,sairabasu@banik.com
Shamik Krishnamurthy,"18/827, Shetty, Chapra 869180",Gopalpur,Tamil Nadu,132597,1281272070,diya99@gmail.com
Ira Wali,"H.No. 196, Singhal, Haridwar 450090",Bharatpur,Meghalaya,114865,+910465760537,sachargokul@hotmail.com
Baiju Anand,"90/99, Balay, Baranagar-709315",Kalyan-Dombivli,Chhattisgarh,281688,+919081388084,tellasamarth@setty.com
Vivaan Sani,"63, Contractor Road, Kirari Suleman Nagar 869514",Tirupati,Madhya Pradesh,058578,2580458947,boraryan@sachdev.com
Ranbir Chopra,"82, Sani Marg, Bhagalpur 000491",Kavali,West Bengal,130050,09414254000,eshani77@yahoo.com
Amani Hans,"H.No. 242, Sarma Street, Thoothukudi 506637",Kanpur,Sikkim,054157,00086355987,mishakamdar@gmail.com
Prisha Bose,"H.No. 46, Buch Street, Anand-304978",Kochi,Punjab,472462,+919782973875,cherianzara@gmail.com
Nitya Acharya,"H.No. 998, Sood Street, Tiruppur-401175",Narasaraopet,Himachal Pradesh,575933,07033030957,thakurbhamini@golla.biz
Siya Lata,"52/248, Hari Chowk, Ulhasnagar 587144",Panihati,Tripura,390871,7057472954,jayesh96@gmail.com
Anaya Chanda,"97/40, Dubey Path, Giridih-003530",Thanjavur,Goa,941763,+919878743563,varghesesamar@chawla.com
Saira Banerjee,"H.No. 657, Subramaniam Chowk, Pune 223371",Jodhpur,Rajasthan,025362,+916936460011,hborde@hotmail.com
Aaina Agrawal,"28/278, Ranganathan Road, Salem-763818",Unnao,Tripura,740263,07033567660,iraahuja@ghosh-lala.com
Anya Khalsa,"19/05, Soman Nagar, Eluru 979977",Allahabad,Chhattisgarh,996983,08210836585,reneesrinivas@hotmail.com
Stuvan Buch,"09/70, Chakrabarti Path, Jhansi-497784",Korba,Andhra Pradesh,860926,6083707460,anyabedi@yahoo.com
Darshit Sunder,"88, Raman Circle, Ballia-692831",Dhanbad,Telangana,027406,3573439896,golapranay@hotmail.com
Priyansh Bandi,"794, Madan Ganj, Kanpur 165532",Bhusawal,Tamil Nadu,236420,01355342524,jdugar@yahoo.com
Jayesh Bandi,"H.No. 47, Shenoy, Nellore-834515",Durgapur,Kerala,548810,04621055432,kulkarnidivyansh@yahoo.com
Zeeshan Rastogi,"68, Dhawan Ganj, Morbi 467280",Thrissur,Sikkim,563805,+911294204643,jjha@chopra.com
Uthkarsh Brar,"44, Madan Path, Berhampore 950359",Ratlam,Karnataka,847014,+915585813874,dsha@hotmail.com
Divij Sawhney,"23/94, Banik Street, Berhampore 830768",Nangloi Jat,Maharashtra,692996,01090070734,vkonda@gmail.com
Alisha Atwal,"53/10, Bahri Zila, Satara-863876",Purnia,Kerala,119745,01611246889,nirvaan93@yahoo.com
Khushi Bhavsar,"04/718, Wali Marg, Bijapur-372347",Kolkata,Andhra Pradesh,527114,7290562410,anikabhagat@hotmail.com
Nirvi Bains,"H.No. 021, Kumar Nagar, Panchkula 269296",Purnia,Tamil Nadu,748869,06113320010,nitara84@yahoo.com
Kashvi Brar,"H.No. 299, Reddy Marg, Nangloi Jat 327824",Nandyal,West Bengal,848807,+917111839594,kvarma@barman.org
Oorja Grover,"51, Sridhar Zila, Thiruvananthapuram-108446",Rohtak,Haryana,097094,+918167097155,bhardwajprisha@hotmail.com
Mamooty Batra,"21/65, Shukla Chowk, Asansol-079631",Buxar,Chhattisgarh,318683,+919041897736,riaan38@hotmail.com
Riaan Kota,"37/032, Edwin Nagar, Rourkela 116611",Kharagpur,Mizoram,214263,07531588105,anya72@gmail.com
Yasmin Aurora,"06/321, Ratti Street, Kirari Suleman Nagar-720090",Kumbakonam,Uttarakhand,394645,4693666004,dthakkar@gmail.com
Anay Sem,"H.No. 702, Kadakia Path, Surat 224085",Chennai,Odisha,651128,+913668843305,malhotraraunak@soman.org
Divij Goel,"98/18, Kashyap Street, Haldia-245629",Ambala,Meghalaya,890828,2494313343,rkrishna@shenoy.biz
Anahita Wali,"H.No. 67, Loyal Nagar, Kavali 438699",Junagadh,Nagaland,492448,06232812280,ojasgarg@chana.com
Aaina Batta,"498, Chandran Nagar, Sikar-130406",Dhanbad,Nagaland,541079,09040644411,veer82@vyas-mahal.com
Farhan Bandi,"13/114, Agate Road, Delhi-474137",Bhilwara,Telangana,236544,1121585433,subramanianzaina@yahoo.com
Samiha Dasgupta,"H.No. 27, Gopal Path, Mysore 113735",Khandwa,Himachal Pradesh,401017,+919870583790,wbakshi@yahoo.com
Nayantara Biswas,"H.No. 65, Shankar Marg, Madurai-713758",Saharanpur,Nagaland,280016,04430965165,aaina53@yahoo.com
Miraya Dutta,"25/83, Shanker Ganj, Loni 407506",Karawal Nagar,Telangana,275760,+912591797160,himmat72@gmail.com
Anahita Thakur,"H.No. 86, Sathe Marg, Karimnagar 703793",Gangtok,Meghalaya,600292,3061342367,riaandubey@sood.net
Seher Dhingra,"H.No. 949, Sridhar Ganj, Ulhasnagar-822986",Dehri,Uttar Pradesh,491043,04555301230,ryandora@hotmail.com
Pihu Amble,"37, Biswas Path, Allahabad-553991",Guwahati,Jharkhand,470849,9553264593,kkhosla@gmail.com
